     2.100          NAVIGATION                              RINEX VERSION / TYPE
fic2rin                                 04/14/2015 00:33:11 PGM / RUN BY / DATE
                                                            END OF HEADER
22 15  4 13 18  0  0.0  .339315272868D-03  .432009983342D-11  .000000000000D+00
     .670000000000D+02  .473125000000D+02  .557594654627D-08 -.228236593599D-01
     .249594449997D-05  .777000270318D-02  .821240246296D-05  .515369057655D+04
     .151200000000D+06 -.651925802231D-07 -.151419031508D+00  .169500708580D-06
     .923360357162D+00  .203875000000D+03 -.205968185381D+01 -.867786146776D-08
     .411088552060D-09  .100000000000D+01  .184000000000D+04  .000000000000D+00
     .240000000000D+01  .000000000000D+00 -.176951289177D-07  .670000000000D+02
     .144006000000D+06  .400000000000D+01
24 15  4 13 18  0  0.0 -.465875491500D-04 -.682121026330D-12  .000000000000D+00
     .450000000000D+02  .446875000000D+01  .465805116939D-08 -.301189424706D+01
     .212341547012D-06  .321788538713D-02  .100471079350D-04  .515368199730D+04
     .151200000000D+06 -.782310962677D-07  .194560060102D+01 -.223517417908D-07
     .953696808912D+00  .182625000000D+03  .346831242708D+00 -.807640784338D-08
    -.268582616115D-09  .100000000000D+01  .184000000000D+04  .000000000000D+00
     .240000000000D+01  .000000000000D+00  .232830643654D-08  .450000000000D+02
     .144006000000D+06  .400000000000D+01
25 15  4 13 18  0  0.0 -.194329768419D-04 -.341060513165D-11  .000000000000D+00
     .470000000000D+02  .566875000000D+02  .418803159118D-08  .128488019123D+01
     .306405127048D-05  .450467015617D-02  .721402466297D-05  .515370117188D+04
     .151200000000D+06 -.409781932831D-07  .300743533712D+01  .137835741043D-06
     .978326870738D+00  .249500000000D+03  .691873443397D+00 -.811176645906D-08
     .126433837905D-09  .100000000000D+01  .184000000000D+04  .000000000000D+00
     .240000000000D+01  .000000000000D+00  .512227416039D-08  .470000000000D+02
     .144006000000D+06  .400000000000D+01
26 15  4 13 18  0  0.0  .159693881869D-04  .886757334229D-11  .000000000000D+00
     .650000000000D+02  .587812500000D+02  .458447667614D-08  .277183429103D+01
     .304169952869D-05  .217814219650D-02  .597909092903D-05  .515973727226D+04
     .151200000000D+06  .447034835815D-07  .300559103045D+01 -.111758708954D-07
     .960436402283D+00  .257500000000D+03 -.212270315337D+01 -.817926927082D-08
     .125719522437D-09  .100000000000D+01  .184000000000D+04  .000000000000D+00
     .340000000000D+01  .630000000000D+02  .838190317154D-08  .650000000000D+02
     .144006000000D+06  .400000000000D+01
27 15  4 13 18  0  0.0  .647432170808D-04  .272848410532D-11  .000000000000D+00
     .360000000000D+02 -.586250000000D+02  .454090343257D-08 -.967838352295D+00
    -.304356217384D-05  .228773872368D-02  .481121242046D-05  .515368684387D+04
     .151200000000D+06  .186264514923D-07 -.223165027614D+01 -.502914190292D-07
     .966715754311D+00  .291562500000D+03  .159659144341D+00 -.830248868912D-08
    -.211437378644D-09  .100000000000D+01  .184000000000D+04  .000000000000D+00
     .240000000000D+01  .000000000000D+00  .186264514923D-08  .360000000000D+02
     .144006000000D+06  .400000000000D+01
28 15  4 13 18  0  0.0  .432726461440D-03  .261479726760D-11  .000000000000D+00
     .210000000000D+02  .548437500000D+02  .412731477637D-08 -.246296061277D+00
     .298209488392D-05  .195385190891D-01  .703334808350D-05  .515369439888D+04
     .151200000000D+06 -.225380063057D-06  .307757825356D+01  .633299350739D-07
     .988959270100D+00  .262187500000D+03 -.166448949157D+01 -.839856411962D-08
     .245010205659D-09  .100000000000D+01  .184000000000D+04  .000000000000D+00
     .240000000000D+01  .000000000000D+00 -.111758708954D-07  .210000000000D+02
     .144006000000D+06  .400000000000D+01
29 15  4 13 18  0  0.0  .604109372944D-03  .227373675443D-11  .000000000000D+00
     .270000000000D+02 -.495000000000D+02  .439375444608D-08  .166908664873D+01
    -.263750553131D-05  .135681976099D-02  .474788248539D-05  .515377960587D+04
     .151200000000D+06  .745058059692D-08 -.217481613698D+01  .130385160446D-07
     .972637414092D+00  .293125000000D+03 -.699372989064D+00 -.819534136886D-08
    -.148577617426D-09  .100000000000D+01  .184000000000D+04  .000000000000D+00
     .240000000000D+01  .000000000000D+00 -.977888703346D-08  .270000000000D+02
     .144006000000D+06  .400000000000D+01
30 15  4 13 18  0  0.0 -.716689974070D-04  .386535248253D-11  .000000000000D+00
     .520000000000D+02  .154062500000D+02  .460126308965D-08  .265102478249D+01
     .890344381332D-06  .121494510677D-02  .108499079943D-04  .515376020813D+04
     .151200000000D+06 -.372529029846D-07  .203569026210D+01  .409781932831D-07
     .956242665265D+00  .169281250000D+03  .284670227779D+01 -.811033782812D-08
    -.216437586923D-09  .100000000000D+01  .184000000000D+04  .000000000000D+00
     .240000000000D+01  .000000000000D+00  .325962901115D-08  .520000000000D+02
     .144006000000D+06  .400000000000D+01
31 15  4 13 18  0  0.0  .318689737469D-03 -.102318153949D-11  .000000000000D+00
     .101000000000D+03  .239062500000D+02  .421981862953D-08  .232430512311D+01
     .151060521603D-05  .817117397673D-02  .101365149021D-04  .515376441574D+04
     .151200000000D+06  .109896063805D-06  .199329358246D+01  .160187482834D-06
     .975387841984D+00  .192093750000D+03 -.521163364683D+00 -.780996817367D-08
    -.330013746397D-09  .100000000000D+01  .184000000000D+04  .000000000000D+00
     .240000000000D+01  .000000000000D+00 -.135041773319D-07  .101000000000D+03
     .144006000000D+06  .400000000000D+01
32 15  4 13 18  0  0.0 -.176936388016D-03  .943600753089D-11  .000000000000D+00
     .340000000000D+02  .455625000000D+02  .491627621121D-08  .297332123591D+01
     .243447721004D-05  .112578390399D-01  .836886465549D-05  .515378736496D+04
     .151200000000D+06 -.145286321640D-06 -.516486885180D-01  .186264514923D-07
     .947449703986D+00  .209187500000D+03  .336187278978D-01 -.812819571483D-08
     .446804325479D-09  .100000000000D+01  .184000000000D+04  .000000000000D+00
     .240000000000D+01  .000000000000D+00 -.372529029846D-08  .340000000000D+02
     .144006000000D+06  .400000000000D+01
31 15  4 13 17 59 44.0  .318690203130D-03 -.102318153949D-11  .000000000000D+00
     .200000000000D+02  .239062500000D+02  .421981862953D-08  .232197137963D+01
     .151060521603D-05  .817117327824D-02  .101365149021D-04  .515376441193D+04
     .151184000000D+06  .109896063805D-06  .199329370681D+01  .160187482834D-06
     .975387841984D+00  .192093750000D+03 -.521163238872D+00 -.780996817367D-08
    -.330370904131D-09  .100000000000D+01  .184000000000D+04  .000000000000D+00
     .240000000000D+01  .000000000000D+00 -.135041773319D-07  .200000000000D+02
     .144456000000D+06  .400000000000D+01
10 15  4 13 17 59 44.0 -.170785002410D-03 -.136424205266D-11  .000000000000D+00
     .500000000000D+01  .363750000000D+02  .517057251796D-08  .758615465893D-01
     .198185443878D-05  .146189579973D-01  .886991620064D-05  .515367604256D+04
     .151184000000D+06 -.502914190292D-07 -.125134072862D+00  .180676579475D-06
     .941774959907D+00  .202187500000D+03  .927446938356D+00 -.857464288258D-08
     .391087718945D-09  .100000000000D+01  .184000000000D+04  .000000000000D+00
     .240000000000D+01  .000000000000D+00 -.325962901115D-08  .500000000000D+01
     .147816000000D+06  .400000000000D+01
24 15  4 13 17 59 44.0 -.465838238597D-04 -.682121026330D-12  .000000000000D+00
     .100000000000D+02  .446875000000D+01  .465805116939D-08 -.301422640181D+01
     .212341547012D-06  .321789213922D-02  .100471079350D-04  .515368200493D+04
     .151184000000D+06 -.782310962677D-07  .194560074293D+01 -.223517417908D-07
     .953696781116D+00  .182625000000D+03  .346829634961D+00 -.807640784338D-08
    -.268582616115D-09  .100000000000D+01  .184000000000D+04  .000000000000D+00
     .240000000000D+01  .000000000000D+00  .232830643654D-08  .100000000000D+02
     .148566000000D+06  .400000000000D+01
20 15  4 13 17 59 44.0  .309897586703D-03  .386535248253D-11  .000000000000D+00
     .460000000000D+02  .355937500000D+02  .533557939116D-08 -.654657721785D+00
     .199489295483D-05  .570042221807D-02  .931881368160D-05  .515578771782D+04
     .151184000000D+06 -.484287738800D-07 -.205178658149D+00  .372529029846D-07
     .926717853633D+00  .182375000000D+03  .122237886542D+01 -.850821154402D-08
     .422517599554D-09  .100000000000D+01  .184000000000D+04  .000000000000D+00
     .240000000000D+01  .000000000000D+00 -.838190317154D-08  .460000000000D+02
     .149706000000D+06  .400000000000D+01
 6 15  4 13 17 59 44.0  .134825706482D-03  .989075488178D-11  .000000000000D+00
     .500000000000D+01 -.718750000000D+02  .425517724521D-08 -.131591395897D+01
    -.364333391190D-05  .217794324271D-03  .108480453491D-04  .515373618507D+04
     .151184000000D+06 -.167638063431D-07 -.118298560926D+01 -.782310962677D-07
     .961745207794D+00  .172281250000D+03 -.301568686365D+01 -.790890086604D-08
    -.157149403046D-10  .100000000000D+01  .184000000000D+04  .000000000000D+00
     .240000000000D+01  .000000000000D+00  .465661287308D-08  .500000000000D+01
     .150066000000D+06  .400000000000D+01
 6 15  4 13 19 59 44.0  .134896952659D-03  .989075488178D-11  .000000000000D+00
     .600000000000D+01 -.708125000000D+02  .433339478900D-08 -.265280698829D+00
    -.364333391190D-05  .217010267079D-03  .113379210234D-04  .515373529053D+04
     .158384000000D+06  .577419996262D-07 -.118304245972D+01  .186264514923D-07
     .961744512908D+00  .162281250000D+03 -.301617981145D+01 -.799604735318D-08
    -.800033324599D-10  .100000000000D+01  .184000000000D+04  .000000000000D+00
     .240000000000D+01  .000000000000D+00  .465661287308D-08  .600000000000D+01
     .151206000000D+06  .400000000000D+01
